OBJECT_NAME,OBJECT_ID,EPOCH,MEAN_MOTION,ECCENTRICITY,INCLINATION,RA_OF_ASC_NODE,ARG_OF_PERICENTER,MEAN_ANOMALY,EPHEMERIS_TYPE,CLASSIFICATION_TYPE,NORAD_CAT_ID,ELEMENT_SET_NO,REV_AT_EPOCH,BSTAR,MEAN_MOTION_DOT,MEAN_MOTION_DDOT
BLACKJACK ACES-3,2023-084U,2026-07-07T11:10:02.002080,15.18675260,.00008751,97.6234,323.8149,316.9554,43.1611,0,U,56950,999,17024,.19394191E-3,.395E-4,0
BLACKJACK ACES-2,2023-084Z,2026-07-07T09:43:44.285088,15.18670151,.00010532,97.6230,323.8389,143.8382,216.2923,0,U,56955,999,17024,.23186273E-3,.4736E-4,0
BLACKJACK ACES-1,2023-084AA,2026-07-07T07:51:12.894912,15.18716343,.00015487,97.6222,323.5322,126.3614,233.7763,0,U,56956,999,11995,.25838736E-3,.5293E-4,0
ION SCV-011,2023-084AB,2026-07-07T13:13:19.380864,15.29045823,.00064488,98.1388,17.7199,336.4561,23.6380,0,U,56957,999,16892,.12753083E-3,.3509E-4,0
GHOST-3,2023-084AC,2026-07-07T09:26:43.768896,15.48590487,.0006275,97.6237,338.0616,212.4836,147.6029,0,U,56958,999,17114,.26551063E-3,.14081E-3,0
AFR-1,2023-084AJ,2026-07-07T14:09:57.728736,15.28732320,.00089792,97.6297,325.7776,265.9060,94.1153,0,U,56964,999,17034,.11869771E-3,.3239E-4,0
METEOR-M2 3,2023-091A,2026-07-07T14:45:40.256928,14.24048528,.00051071,98.6077,243.1743,107.2489,252.9249,0,U,57166,999,15742,.10381656E-4,-.19E-6,0
UMKA 1 (RS40S),2023-091G,2026-07-07T13:19:06.537792,15.21064138,.00136979,97.5038,247.1755,54.2930,305.9578,0,U,57172,999,16710,.1929937E-3,.4227E-4,0
2023-091H,2023-091H,2026-07-07T14:29:02.274720,15.29103810,.00103202,97.5036,251.9654,50.1970,310.0176,0,U,57173,999,16742,.28289992E-3,.7928E-4,0
2023-091J,2023-091J,2026-07-07T14:39:41.498208,15.14077338,.00147665,97.5043,241.4164,79.8606,280.4291,0,U,57174,999,16672,.15967187E-3,.2846E-4,0
CUBEBEL 2 (EU11S),2023-091K,2026-07-07T14:19:41.692512,15.29695248,.00103049,97.5038,252.0018,51.4895,308.7268,0,U,57175,999,16742,.32360619E-3,.9248E-4,0
SITRO-AIS 5 (KATYS),2023-091L,2026-07-07T14:38:46.361184,15.29947404,.00114697,97.5048,252.7090,38.5292,321.6765,0,U,57176,999,16746,.28124015E-3,.8092E-4,0
ZORKIY-2M 1,2023-091M,2026-07-07T14:32:17.063520,15.21183734,.00141104,97.5079,247.5082,51.2050,309.0444,0,U,57177,999,16710,.2091582E-3,.4604E-4,0
CUBESX-HSE 3 (RS42S),2023-091N,2026-07-07T13:25:45.615072,15.31754019,.0010488,97.5079,254.4100,28.8678,331.3142,0,U,57178,999,16754,.29830929E-3,.9083E-4,0
MONITOR-3 (RS58S),2023-091Q,2026-07-07T13:32:24.481536,15.28271235,.00118054,97.5071,252.1639,35.8656,324.3374,0,U,57180,999,16740,.25880364E-3,.7065E-4,0
MONITOR-4 (RS57S),2023-091S,2026-07-07T14:34:54.012576,15.28357684,.00118005,97.5065,252.1799,36.1351,324.0684,0,U,57182,999,16741,.25708561E-3,.7037E-4,0
MONITOR-2 (RS39S),2023-091U,2026-07-07T14:26:56.716512,15.19108552,.00121002,97.5060,246.7539,48.5548,311.6723,0,U,57184,999,16705,.15594508E-3,.3209E-4,0
SVYATOBOR 1 (RS60S),2023-091X,2026-07-07T13:45:14.795424,15.26977602,.000953,97.5077,252.5061,30.8143,329.3653,0,U,57187,999,16742,.22727721E-3,.595E-4,0
HORS 1,2023-091Y,2026-07-07T13:22:17.878368,15.27092322,.00089973,97.5054,252.2499,31.1606,329.0164,0,U,57188,999,16742,.22485108E-3,.5906E-4,0
VIZARD-METEO (RS38S),2023-091Z,2026-07-07T14:22:27.369696,15.36706979,.00064104,97.5078,258.5012,9.7833,350.3535,0,U,57189,999,16782,.33294795E-3,.11866E-3,0
SITRO-AIS 6 (CHIRKIN),2023-091AC,2026-07-07T13:42:37.407456,15.26340960,.00119549,97.5055,251.6792,42.2911,317.9247,0,U,57192,999,16739,.25659701E-3,.6604E-4,0
SITRO-AIS 8 (ANOKHIN),2023-091AD,2026-07-07T14:11:05.458560,15.32718952,.00103076,97.5043,254.3625,34.6388,325.5524,0,U,57193,999,16757,.31456304E-3,.9877E-4,0
SITRO-AIS 7 (FARTUSHNIY),2023-091AE,2026-07-07T12:18:49.218624,15.26018341,.0011906,97.5051,251.4352,43.5906,316.6271,0,U,57194,999,16737,.27777341E-3,.7086E-4,0
AVION KALUGA 650,2023-091AF,2026-07-07T13:31:49.989792,15.20579510,.00111437,97.5076,248.0591,47.2029,313.0141,0,U,57195,999,16712,.18669501E-3,.4025E-4,0
HORS 2,2023-091AG,2026-07-07T14:32:58.588224,15.32431353,.00076704,97.5076,255.9199,22.9034,337.2548,0,U,57196,999,16765,.29719166E-3,.9236E-4,0
A-SEANSAT-PG1,2023-091AH,2026-07-07T13:55:05.506176,15.37699200,.00064414,97.5067,258.6052,18.5004,341.6474,0,U,57197,999,16784,.32759076E-3,.12055E-3,0
SITRO-AIS 10 (BURDAEV),2023-091AK,2026-07-07T14:24:32.974560,15.39423147,.00055816,97.5068,259.6405,12.1352,348.0027,0,U,57199,999,16790,.36305113E-3,.14144E-3,0
SITRO-AIS 9 (SHCHUKIN),2023-091AM,2026-07-07T13:38:27.396960,15.38912472,.00058703,97.5065,259.3213,12.2563,347.8824,0,U,57201,999,16788,.34828893E-3,.1334E-3,0
UTMN 2 (RS27S),2023-091AP,2026-07-07T13:35:13.303680,15.32575036,.00075518,97.5075,256.0752,18.0579,342.0930,0,U,57203,999,16766,.28717048E-3,.8961E-4,0
SITRO-AIS 12 (SMIRENNIY),2023-091AQ,2026-07-07T11:45:45.023616,15.39203506,.00053871,97.5079,259.7212,6.2833,353.8479,0,U,57204,999,16789,.35487698E-3,.13723E-3,0
SITRO-AIS 11 (SHEFFER),2023-091AU,2026-07-07T13:30:28.072224,15.39646470,.0005284,97.5077,260.0552,5.6225,354.5079,0,U,57208,999,16792,.36713322E-3,.14409E-3,0
H2SAT (HEINRICH HERTZ),2023-093A,2026-07-06T22:21:02.101248,1.00270676,.00010972,0.0143,103.1163,34.0278,123.7384,0,U,57213,999,1111,0,.17E-6,0
KUZGTU 1 (RS47S),2023-091AV,2026-07-07T13:39:19.244736,15.30352567,.00108843,97.5051,253.2616,32.7971,327.3943,0,U,57217,999,16749,.27877985E-3,.812E-4,0
QIANKUN-1,2023-103B,2026-07-07T14:05:13.422624,16.07709830,.00363323,96.1478,231.9969,141.9752,218.4109,0,U,57422,999,17057,.23466468E-3,.206239E-2,.21002334E-4
FENGYUN 3F,2023-111A,2026-07-07T14:53:33.213120,14.19942611,.00014088,98.6829,258.2478,80.0083,280.1252,0,U,57490,999,15176,.27678407E-4,.15E-6,0
METEOR 2-1 DEB,1975-064F,2026-07-02T16:40:06.054528,14.29524505,.00095544,81.2776,343.7254,36.0022,324.1801,0,U,57492,999,40520,.88245023E-3,.2268E-4,0
HJ-2F,2023-116A,2026-07-07T15:03:12.010176,15.22623371,.00074034,97.3850,193.4931,343.7556,16.3443,0,U,57519,999,16186,.23521822E-3,.5404E-4,0
XRISM,2023-137A,2026-07-07T12:22:55.797312,15.12636757,.00078123,31.0012,227.9044,169.3138,190.7668,0,U,57800,999,15594,.13372739E-3,.2494E-4,0
METEOR-M2 4,2024-039A,2026-07-07T15:40:14.811744,14.22431645,.00081682,98.7020,147.6948,107.5089,252.6982,0,U,59051,999,12217,.27020917E-4,.16E-6,0
GRBBETA,2024-128C,2026-07-07T11:04:37.710912,15.06772780,.00379974,61.9890,145.1259,138.9442,221.4522,0,U,60237,999,10932,.17646117E-3,.246E-4,0
TRANSPORTER-11 OBJECT A,2024-149A,2026-07-06T05:06:19.992096,15.33239338,.00044079,97.3721,267.0866,139.2620,220.8952,0,U,60468,999,10497,.26910686E-3,.8567E-4,0
WARATAH SEED-1,2024-149B,2026-07-06T17:13:38.602560,15.36467018,.00028755,97.3680,268.3167,137.0194,223.1275,0,U,60469,999,10511,.3028782E-3,.10699E-3,0
PHISAT 2,2024-149C,2026-07-07T13:37:02.477856,15.31348640,.00027935,97.3747,267.6732,136.1204,224.0260,0,U,60470,999,10511,.16681096E-3,.4973E-4,0
LEMUR-2-TOMATOKECHUP,2024-149D,2026-07-06T17:07:24.161376,15.36460405,.00029076,97.3789,269.8148,137.9028,222.2440,0,U,60471,999,10516,.2550042E-3,.8991E-4,0
CONNECTA IOT-1,2024-149E,2026-07-07T01:28:08.450688,15.23700125,.00020991,97.3745,264.0177,159.6473,200.4848,0,U,60472,999,10482,.13547777E-3,.3182E-4,0
LOPEN,2024-149F,2026-07-07T11:14:46.827456,15.40304119,.00023485,97.3769,272.0026,147.4416,212.6975,0,U,60473,999,10538,.27897671E-3,.11162E-3,0
ROCK,2024-149G,2026-07-06T05:18:08.296704,15.40266018,.00025745,97.3764,270.7588,149.0840,211.0558,0,U,60474,999,10519,.3975941E-3,.15933E-3,0
CONNECTA IOT-3,2024-149H,2026-07-07T00:24:07.305408,15.23712963,.00031959,97.3723,263.7215,164.5681,195.5654,0,U,60475,999,10482,.14624659E-3,.3442E-4,0
QUBE,2024-149J,2026-07-06T16:47:31.447392,15.48202046,.00031014,97.3769,274.5214,148.1376,212.0063,0,U,60476,999,10548,.42035998E-3,.22064E-3,0
WREN-1,2024-149L,2026-07-06T17:35:24.042624,15.42378651,.00048172,97.3757,272.0607,176.6834,183.4446,0,U,60478,999,10533,.37843511E-3,.16268E-3,0
TOMORROW-S1,2024-149M,2026-07-06T17:17:21.606144,15.33010122,.00034752,97.3741,268.1341,150.7548,209.3890,0,U,60479,999,10508,.18694408E-3,.5883E-4,0
FLOCK 4BE-18,2024-149N,2026-07-06T16:14:03.628032,15.42564534,.00044183,97.3719,271.6184,172.5556,187.5758,0,U,60480,999,10531,.3441227E-3,.14874E-3,0
FLOCK 4BE-7,2024-149P,2026-07-07T00:38:55.042944,15.41201300,.00037025,97.3750,271.2759,170.7325,189.3991,0,U,60481,999,10530,.44898906E-3,.18577E-3,0
FLOCK 4BE-26,2024-149S,2026-07-06T17:23:18.646368,15.74801408,.00043286,97.3618,274.8096,201.4664,158.6420,0,U,60484,999,10553,.11668729E-2,.174635E-2,0
TOMORROW-S2,2024-149T,2026-07-07T14:22:29.797536,15.33064772,.00031712,97.3812,269.5188,168.7546,191.3768,0,U,60485,999,10521,.16671256E-3,.5246E-4,0
FLOCK 4BE-36,2024-149U,2026-07-07T00:37:59.986272,15.43353640,.00041409,97.3735,272.7003,175.2705,184.8583,0,U,60486,999,10541,.29345017E-3,.13008E-3,0
FLOCK 4BE-25,2024-149V,2026-07-07T04:15:51.501024,15.39388814,.0003132,97.3790,271.4701,160.0470,200.0899,0,U,60487,999,10531,.27493304E-3,.10672E-3,0
FLOCK 4BE-31,2024-149W,2026-07-06T17:09:14.387040,15.44906999,.00032199,97.3790,273.3002,173.1499,186.9795,0,U,60488,999,10539,.36473424E-3,.1707E-3,0
FLOCK 4BE-20,2024-149X,2026-07-07T11:25:39.925920,15.38664199,.00043799,97.3688,270.5986,174.5236,185.6058,0,U,60489,999,10533,.27087628E-3,.10268E-3,0
FLOCK 4BE-23,2024-149Y,2026-07-06T16:35:18.289824,15.38208639,.00038255,97.3773,270.1963,180.2589,179.8655,0,U,60490,999,10519,.32872184E-3,.12296E-3,0
FLOCK 4BE-15,2024-149Z,2026-07-07T05:00:57.244896,15.63651846,.00047581,97.3660,274.3882,206.3522,153.7495,0,U,60491,999,10555,.8700164E-3,.81479E-3,0
FLOCK 4BE-17,2024-149AA,2026-07-07T00:54:42.774048,15.40397598,.00038231,97.3763,271.5709,167.7115,192.4225,0,U,60492,999,10531,.31874942E-3,.12809E-3,0
NUSAT-50 (NANCY ROMAN),2024-149AB,2026-07-07T04:20:38.011200,15.30223041,.00047299,97.3778,269.3014,121.0108,239.1598,0,U,60493,999,10518,.2451007E-3,.7093E-4,0
